{"type": "FeatureCollection", "features": [{"type": "Feature", "properties": {"division_code": 1, "block_code": 1, "block_label": "1-1", "planted_ha": 0.81, "palms": 111, "planted_year": 2010, "abw_kg": 21.7, "rotation_target_days": 10, "gang_code": "", "road_condition": "poor", "bunches_per_day": 4.0, "centroid_lon": 100.179349, "centroid_lat": 1.614848}, "geometry": {"type": "Polygon", "coordinates": [[[100.180009, 1.614925], [100.180001, 1.614816], [100.178836, 1.614305], [100.178964, 1.615229], [100.179821, 1.615161], [100.180009, 1.614925]]]}}, {"type": "Feature", "properties": {"division_code": 1, "block_code": 2, "block_label": "1-2", "planted_ha": 2.23, "palms": 306, "planted_year": 2011, "abw_kg": 21.9, "rotation_target_days": 10, "gang_code": "", "road_condition": "fair", "bunches_per_day": 11.0, "centroid_lon": 100.181135, "centroid_lat": 1.614657}, "geometry": {"type": "Polygon", "coordinates": [[[100.180045, 1.614923], [100.180216, 1.615136], [100.181274, 1.615094], [100.182317, 1.615087], [100.182132, 1.614502], [100.180796, 1.613906], [100.180036, 1.614809], [100.180045, 1.614923]]]}}, {"type": "Feature", "properties": {"division_code": 1, "block_code": 3, "block_label": "1-3", "planted_ha": 3.91, "palms": 537, "planted_year": 2010, "abw_kg": 22.2, "rotation_target_days": 10, "gang_code": "", "road_condition": "good", "bunches_per_day": 19.8, "centroid_lon": 100.179698, "centroid_lat": 1.613642}, "geometry": {"type": "Polygon", "coordinates": [[[100.178662, 1.613087], [100.178829, 1.614263], [100.180013, 1.614781], [100.180772, 1.613878], [100.180687, 1.613348], [100.179816, 1.612495], [100.178662, 1.613087]]]}}, {"type": "Feature", "properties": {"division_code": 1, "block_code": 4, "block_label": "1-4", "planted_ha": 3.8, "palms": 497, "planted_year": 2010, "abw_kg": 22.4, "rotation_target_days": 10, "gang_code": "", "road_condition": "good", "bunches_per_day": 19.0, "centroid_lon": 100.18194, "centroid_lat": 1.61339}, "geometry": {"type": "Polygon", "coordinates": [[[100.180723, 1.613347], [100.180807, 1.613871], [100.182142, 1.614467], [100.18309, 1.613446], [100.182358, 1.612141], [100.180723, 1.613347]]]}}, {"type": "Feature", "properties": {"division_code": 1, "block_code": 5, "block_label": "1-5", "planted_ha": 3.37, "palms": 462, "planted_year": 2011, "abw_kg": 21.7, "rotation_target_days": 10, "gang_code": "", "road_condition": "fair", "bunches_per_day": 17.8, "centroid_lon": 100.18336, "centroid_lat": 1.614439}, "geometry": {"type": "Polygon", "coordinates": [[[100.182167, 1.614493], [100.182354, 1.615087], [100.184341, 1.615096], [100.184634, 1.614708], [100.183754, 1.613627], [100.183118, 1.613469], [100.182167, 1.614493]]]}}, {"type": "Feature", "properties": {"division_code": 1, "block_code": 6, "block_label": "1-6", "planted_ha": 4.55, "palms": 602, "planted_year": 2012, "abw_kg": 22.0, "rotation_target_days": 10, "gang_code": "", "road_condition": "good", "bunches_per_day": 20.2, "centroid_lon": 100.18503, "centroid_lat": 1.613498}, "geometry": {"type": "Polygon", "coordinates": [[[100.183787, 1.61361], [100.184666, 1.614689], [100.185185, 1.614681], [100.186328, 1.613459], [100.186316, 1.613218], [100.185456, 1.612622], [100.184817, 1.612143], [100.183787, 1.61361]]]}}, {"type": "Feature", "properties": {"division_code": 1, "block_code": 7, "block_label": "1-7", "planted_ha": 2.78, "palms": 384, "planted_year": 2012, "abw_kg": 22.6, "rotation_target_days": 10, "gang_code": "", "road_condition": "fair", "bunches_per_day": 14.8, "centroid_lon": 100.186442, "centroid_lat": 1.614457}, "geometry": {"type": "Polygon", "coordinates": [[[100.185217, 1.614699], [100.185526, 1.615065], [100.186605, 1.614996], [100.187648, 1.614898], [100.187627, 1.614501], [100.186348, 1.61349], [100.185217, 1.614699]]]}}, {"type": "Feature", "properties": {"division_code": 1, "block_code": 8, "block_label": "1-8", "planted_ha": 4.26, "palms": 572, "planted_year": 2013, "abw_kg": 22.2, "rotation_target_days": 10, "gang_code": "", "road_condition": "fair", "bunches_per_day": 22.7, "centroid_lon": 100.187669, "centroid_lat": 1.613321}, "geometry": {"type": "Polygon", "coordinates": [[[100.186364, 1.613457], [100.187645, 1.614469], [100.188902, 1.613573], [100.188767, 1.612618], [100.186999, 1.612432], [100.186352, 1.613214], [100.186364, 1.613457]]]}}, {"type": "Feature", "properties": {"division_code": 1, "block_code": 9, "block_label": "1-9", "planted_ha": 2.18, "palms": 289, "planted_year": 2011, "abw_kg": 22.2, "rotation_target_days": 10, "gang_code": "", "road_condition": "good", "bunches_per_day": 10.4, "centroid_lon": 100.188828, "centroid_lat": 1.614363}, "geometry": {"type": "Polygon", "coordinates": [[[100.190124, 1.614461], [100.188921, 1.613604], [100.187663, 1.6145], [100.187684, 1.614894], [100.189879, 1.614675], [100.190124, 1.614461]]]}}, {"type": "Feature", "properties": {"division_code": 1, "block_code": 10, "block_label": "1-10", "planted_ha": 4.33, "palms": 569, "planted_year": 2012, "abw_kg": 22.4, "rotation_target_days": 10, "gang_code": "", "road_condition": "fair", "bunches_per_day": 19.2, "centroid_lon": 100.189896, "centroid_lat": 1.613135}, "geometry": {"type": "Polygon", "coordinates": [[[100.190148, 1.614434], [100.191241, 1.612973], [100.191223, 1.612816], [100.189242, 1.611968], [100.188801, 1.612605], [100.188938, 1.613571], [100.190148, 1.614434]]]}}, {"type": "Feature", "properties": {"division_code": 1, "block_code": 11, "block_label": "1-11", "planted_ha": 3.23, "palms": 443, "planted_year": 2012, "abw_kg": 21.7, "rotation_target_days": 10, "gang_code": "", "road_condition": "fair", "bunches_per_day": 15.7, "centroid_lon": 100.191542, "centroid_lat": 1.614023}, "geometry": {"type": "Polygon", "coordinates": [[[100.190175, 1.614458], [100.190325, 1.614642], [100.19138, 1.614584], [100.192879, 1.614536], [100.192831, 1.614005], [100.191264, 1.613002], [100.190175, 1.614458]]]}}, {"type": "Feature", "properties": {"division_code": 1, "block_code": 12, "block_label": "1-12", "planted_ha": 2.66, "palms": 368, "planted_year": 2013, "abw_kg": 22.1, "rotation_target_days": 10, "gang_code": "", "road_condition": "good", "bunches_per_day": 13.7, "centroid_lon": 100.193941, "centroid_lat": 1.613951}, "geometry": {"type": "Polygon", "coordinates": [[[100.192867, 1.614002], [100.192915, 1.614535], [100.195031, 1.614473], [100.194855, 1.613722], [100.193923, 1.613019], [100.192867, 1.614002]]]}}, {"type": "Feature", "properties": {"division_code": 1, "block_code": 13, "block_label": "1-13", "planted_ha": 2.36, "palms": 316, "planted_year": 2013, "abw_kg": 22.3, "rotation_target_days": 10, "gang_code": "", "road_condition": "good", "bunches_per_day": 10.8, "centroid_lon": 100.1959, "centroid_lat": 1.613889}, "geometry": {"type": "Polygon", "coordinates": [[[100.194892, 1.613721], [100.195067, 1.614471], [100.196565, 1.614409], [100.197005, 1.61393], [100.196108, 1.613083], [100.194892, 1.613721]]]}}, {"type": "Feature", "properties": {"division_code": 1, "block_code": 14, "block_label": "1-14", "planted_ha": 2.81, "palms": 380, "planted_year": 2014, "abw_kg": 22.5, "rotation_target_days": 10, "gang_code": "", "road_condition": "fair", "bunches_per_day": 13.6, "centroid_lon": 100.19882, "centroid_lat": 1.613754}, "geometry": {"type": "Polygon", "coordinates": [[[100.197977, 1.61435], [100.199921, 1.614275], [100.199887, 1.613431], [100.19822, 1.612956], [100.1977, 1.613912], [100.197977, 1.61435]]]}}, {"type": "Feature", "properties": {"division_code": 1, "block_code": 15, "block_label": "1-15", "planted_ha": 2.26, "palms": 297, "planted_year": 2015, "abw_kg": 22.4, "rotation_target_days": 10, "gang_code": "", "road_condition": "good", "bunches_per_day": 11.2, "centroid_lon": 100.200729, "centroid_lat": 1.613638}, "geometry": {"type": "Polygon", "coordinates": [[[100.199957, 1.614274], [100.201576, 1.614186], [100.20147, 1.613377], [100.200813, 1.612728], [100.199923, 1.613426], [100.199957, 1.614274]]]}}, {"type": "Feature", "properties": {"division_code": 1, "block_code": 16, "block_label": "1-16", "planted_ha": 1.86, "palms": 245, "planted_year": 2009, "abw_kg": 21.9, "rotation_target_days": 10, "gang_code": "", "road_condition": "fair", "bunches_per_day": 9.3, "centroid_lon": 100.17909, "centroid_lat": 1.612138}, "geometry": {"type": "Polygon", "coordinates": [[[100.1798, 1.612463], [100.179754, 1.611737], [100.178504, 1.611292], [100.178552, 1.612064], [100.178657, 1.613049], [100.1798, 1.612463]]]}}, {"type": "Feature", "properties": {"division_code": 1, "block_code": 17, "block_label": "1-17", "planted_ha": 4.2, "palms": 573, "planted_year": 2010, "abw_kg": 22.2, "rotation_target_days": 10, "gang_code": "", "road_condition": "fair", "bunches_per_day": 19.9, "centroid_lon": 100.180855, "centroid_lat": 1.612091}, "geometry": {"type": "Polygon", "coordinates": [[[100.179837, 1.612465], [100.180705, 1.613315], [100.182347, 1.612097], [100.180554, 1.610861], [100.179789, 1.61173], [100.179837, 1.612465]]]}}, {"type": "Feature", "properties": {"division_code": 1, "block_code": 18, "block_label": "1-18", "planted_ha": 4.32, "palms": 592, "planted_year": 2012, "abw_kg": 22.1, "rotation_target_days": 10, "gang_code": "", "road_condition": "good", "bunches_per_day": 20.8, "centroid_lon": 100.18358, "centroid_lat": 1.612329}, "geometry": {"type": "Polygon", "coordinates": [[[100.183124, 1.613433], [100.183757, 1.61359], [100.184794, 1.612113], [100.184699, 1.61169], [100.183204, 1.611222], [100.182383, 1.612095], [100.183124, 1.613433]]]}}, {"type": "Feature", "properties": {"division_code": 1, "block_code": 19, "block_label": "1-19", "planted_ha": 4.61, "palms": 614, "planted_year": 2013, "abw_kg": 21.6, "rotation_target_days": 10, "gang_code": "", "road_condition": "good", "bunches_per_day": 21.5, "centroid_lon": 100.185946, "centroid_lat": 1.611824}, "geometry": {"type": "Polygon", "coordinates": [[[100.18483, 1.612107], [100.185477, 1.612593], [100.18633, 1.613184], [100.186973, 1.612407], [100.186892, 1.611361], [100.186144, 1.610645], [100.185481, 1.610669], [100.184733, 1.61168], [100.18483, 1.612107]]]}}, {"type": "Feature", "properties": {"division_code": 1, "block_code": 20, "block_label": "1-20", "planted_ha": 5.13, "palms": 678, "planted_year": 2012, "abw_kg": 22.0, "rotation_target_days": 10, "gang_code": "", "road_condition": "good", "bunches_per_day": 23.7, "centroid_lon": 100.19258, "centroid_lat": 1.612657}, "geometry": {"type": "Polygon", "coordinates": [[[100.191277, 1.612967], [100.192846, 1.613972], [100.193904, 1.612988], [100.193884, 1.612531], [100.192507, 1.611375], [100.191866, 1.611555], [100.191258, 1.612807], [100.191277, 1.612967]]]}}, {"type": "Feature", "properties": {"division_code": 1, "block_code": 21, "block_label": "1-21", "planted_ha": 3.01, "palms": 416, "planted_year": 2014, "abw_kg": 21.9, "rotation_target_days": 10, "gang_code": "", "road_condition": "good", "bunches_per_day": 15.8, "centroid_lon": 100.19498, "centroid_lat": 1.612792}, "geometry": {"type": "Polygon", "coordinates": [[[100.19392, 1.61253], [100.193939, 1.612986], [100.194873, 1.61369], [100.196091, 1.613051], [100.196005, 1.612398], [100.194595, 1.611966], [100.19392, 1.61253]]]}}, {"type": "Feature", "properties": {"division_code": 1, "block_code": 22, "block_label": "1-22", "planted_ha": 4.17, "palms": 558, "planted_year": 2014, "abw_kg": 22.3, "rotation_target_days": 10, "gang_code": "", "road_condition": "good", "bunches_per_day": 19.6, "centroid_lon": 100.197086, "centroid_lat": 1.612762}, "geometry": {"type": "Polygon", "coordinates": [[[100.19604, 1.612389], [100.196128, 1.613052], [100.197038, 1.613911], [100.197668, 1.613895], [100.198192, 1.61293], [100.198175, 1.612741], [100.197052, 1.611516], [100.19677, 1.611462], [100.19604, 1.612389]]]}}, {"type": "Feature", "properties": {"division_code": 1, "block_code": 23, "block_label": "1-23", "planted_ha": 3.86, "palms": 515, "planted_year": 2015, "abw_kg": 21.7, "rotation_target_days": 10, "gang_code": "", "road_condition": "good", "bunches_per_day": 17.8, "centroid_lon": 100.199566, "centroid_lat": 1.612458}, "geometry": {"type": "Polygon", "coordinates": [[[100.198211, 1.612739], [100.198228, 1.61292], [100.1999, 1.613398], [100.200796, 1.612695], [100.200792, 1.612383], [100.199641, 1.611334], [100.199479, 1.611294], [100.198211, 1.612739]]]}}, {"type": "Feature", "properties": {"division_code": 1, "block_code": 24, "block_label": "1-24", "planted_ha": 3.98, "palms": 536, "planted_year": 2011, "abw_kg": 22.5, "rotation_target_days": 10, "gang_code": "", "road_condition": "poor", "bunches_per_day": 17.9, "centroid_lon": 100.179373, "centroid_lat": 1.610558}, "geometry": {"type": "Polygon", "coordinates": [[[100.179766, 1.611703], [100.180532, 1.610831], [100.180034, 1.610118], [100.179576, 1.609407], [100.17906, 1.609341], [100.178475, 1.610025], [100.178502, 1.611253], [100.179766, 1.611703]]]}}, {"type": "Feature", "properties": {"division_code": 1, "block_code": 25, "block_label": "1-25", "planted_ha": 4.49, "palms": 608, "planted_year": 2011, "abw_kg": 21.6, "rotation_target_days": 10, "gang_code": "", "road_condition": "fair", "bunches_per_day": 20.6, "centroid_lon": 100.182065, "centroid_lat": 1.610793}, "geometry": {"type": "Polygon", "coordinates": [[[100.180573, 1.610831], [100.182363, 1.612064], [100.18318, 1.611195], [100.183094, 1.61042], [100.182128, 1.609485], [100.180573, 1.610831]]]}}, {"type": "Feature", "properties": {"division_code": 1, "block_code": 26, "block_label": "1-26", "planted_ha": 4.07, "palms": 545, "planted_year": 2013, "abw_kg": 21.8, "rotation_target_days": 10, "gang_code": "", "road_condition": "good", "bunches_per_day": 19.1, "centroid_lon": 100.184303, "centroid_lat": 1.610578}, "geometry": {"type": "Polygon", "coordinates": [[[100.183215, 1.611188], [100.184707, 1.611655], [100.185451, 1.61065], [100.184697, 1.609278], [100.18313, 1.61042], [100.183215, 1.611188]]]}}, {"type": "Feature", "properties": {"division_code": 1, "block_code": 27, "block_label": "1-27", "planted_ha": 3.93, "palms": 528, "planted_year": 2014, "abw_kg": 21.5, "rotation_target_days": 10, "gang_code": "", "road_condition": "good", "bunches_per_day": 19.7, "centroid_lon": 100.188098, "centroid_lat": 1.611718}, "geometry": {"type": "Polygon", "coordinates": [[[100.187008, 1.612397], [100.188774, 1.612582], [100.189217, 1.61194], [100.189209, 1.611553], [100.188632, 1.610691], [100.188512, 1.610672], [100.186928, 1.611364], [100.187008, 1.612397]]]}}, {"type": "Feature", "properties": {"division_code": 1, "block_code": 28, "block_label": "1-28", "planted_ha": 3.44, "palms": 474, "planted_year": 2014, "abw_kg": 21.5, "rotation_target_days": 10, "gang_code": "", "road_condition": "good", "bunches_per_day": 16.9, "centroid_lon": 100.189772, "centroid_lat": 1.610463}, "geometry": {"type": "Polygon", "coordinates": [[[100.189233, 1.611524], [100.191001, 1.610627], [100.190959, 1.610234], [100.189554, 1.609342], [100.188665, 1.610674], [100.189233, 1.611524]]]}}, {"type": "Feature", "properties": {"division_code": 1, "block_code": 29, "block_label": "1-29", "planted_ha": 3.83, "palms": 521, "planted_year": 2013, "abw_kg": 21.6, "rotation_target_days": 10, "gang_code": "", "road_condition": "fair", "bunches_per_day": 18.6, "centroid_lon": 100.190641, "centroid_lat": 1.611715}, "geometry": {"type": "Polygon", "coordinates": [[[100.189253, 1.611933], [100.191231, 1.61278], [100.191831, 1.611542], [100.191016, 1.61066], [100.189245, 1.611559], [100.189253, 1.611933]]]}}, {"type": "Feature", "properties": {"division_code": 1, "block_code": 30, "block_label": "1-30", "planted_ha": 3.63, "palms": 494, "planted_year": 2013, "abw_kg": 21.8, "rotation_target_days": 10, "gang_code": "", "road_condition": "good", "bunches_per_day": 16.8, "centroid_lon": 100.193711, "centroid_lat": 1.611333}, "geometry": {"type": "Polygon", "coordinates": [[[100.193902, 1.612498], [100.194574, 1.611936], [100.194746, 1.610855], [100.193139, 1.610288], [100.192534, 1.611351], [100.193902, 1.612498]]]}}, {"type": "Feature", "properties": {"division_code": 1, "block_code": 31, "block_label": "1-31", "planted_ha": 3.47, "palms": 473, "planted_year": 2014, "abw_kg": 22.5, "rotation_target_days": 10, "gang_code": "", "road_condition": "fair", "bunches_per_day": 17.3, "centroid_lon": 100.195615, "centroid_lat": 1.611369}, "geometry": {"type": "Polygon", "coordinates": [[[100.194611, 1.611933], [100.196015, 1.612363], [100.19674, 1.611442], [100.195848, 1.61034], [100.195557, 1.610308], [100.194783, 1.610854], [100.194611, 1.611933]]]}}, {"type": "Feature", "properties": {"division_code": 1, "block_code": 32, "block_label": "1-32", "planted_ha": 3.76, "palms": 509, "planted_year": 2014, "abw_kg": 22.1, "rotation_target_days": 10, "gang_code": "", "road_condition": "fair", "bunches_per_day": 17.3, "centroid_lon": 100.198324, "centroid_lat": 1.611393}, "geometry": {"type": "Polygon", "coordinates": [[[100.198192, 1.612706], [100.19945, 1.611272], [100.198667, 1.610061], [100.197873, 1.610804], [100.197087, 1.6115], [100.198192, 1.612706]]]}}, {"type": "Feature", "properties": {"division_code": 1, "block_code": 33, "block_label": "1-33", "planted_ha": 2.36, "palms": 316, "planted_year": 2016, "abw_kg": 20.2, "rotation_target_days": 10, "gang_code": "", "road_condition": "good", "bunches_per_day": 11.3, "centroid_lon": 100.200641, "centroid_lat": 1.611288}, "geometry": {"type": "Polygon", "coordinates": [[[100.200811, 1.612351], [100.201266, 1.611978], [100.201156, 1.611101], [100.201081, 1.610219], [100.200956, 1.6101], [100.199677, 1.611317], [100.200811, 1.612351]]]}}, {"type": "Feature", "properties": {"division_code": 1, "block_code": 34, "block_label": "1-34", "planted_ha": 4.3, "palms": 568, "planted_year": 2011, "abw_kg": 21.4, "rotation_target_days": 10, "gang_code": "", "road_condition": "good", "bunches_per_day": 20.5, "centroid_lon": 100.180852, "centroid_lat": 1.609443}, "geometry": {"type": "Polygon", "coordinates": [[[100.180554, 1.6108], [100.18211, 1.609453], [100.182086, 1.609075], [100.180805, 1.608209], [100.179609, 1.609393], [100.180063, 1.610098], [100.180554, 1.6108]]]}}, {"type": "Feature", "properties": {"division_code": 1, "block_code": 35, "block_label": "1-35", "planted_ha": 3.64, "palms": 481, "planted_year": 2013, "abw_kg": 21.5, "rotation_target_days": 10, "gang_code": "", "road_condition": "good", "bunches_per_day": 17.8, "centroid_lon": 100.183244, "centroid_lat": 1.609281}, "geometry": {"type": "Polygon", "coordinates": [[[100.182146, 1.609453], [100.183112, 1.610388], [100.184684, 1.609244], [100.183015, 1.608208], [100.182122, 1.609071], [100.182146, 1.609453]]]}}, {"type": "Feature", "properties": {"division_code": 1, "block_code": 36, "block_label": "1-36", "planted_ha": 3.92, "palms": 536, "planted_year": 2013, "abw_kg": 22.0, "rotation_target_days": 10, "gang_code": "", "road_condition": "good", "bunches_per_day": 21.1, "centroid_lon": 100.185822, "centroid_lat": 1.609493}, "geometry": {"type": "Polygon", "coordinates": [[[100.184721, 1.609248], [100.185483, 1.610633], [100.186141, 1.610609], [100.187048, 1.609283], [100.185545, 1.608261], [100.184721, 1.609248]]]}}, {"type": "Feature", "properties": {"division_code": 1, "block_code": 37, "block_label": "1-37", "planted_ha": 3.01, "palms": 415, "planted_year": 2013, "abw_kg": 22.5, "rotation_target_days": 10, "gang_code": "", "road_condition": "good", "bunches_per_day": 14.8, "centroid_lon": 100.187239, "centroid_lat": 1.610393}, "geometry": {"type": "Polygon", "coordinates": [[[100.186174, 1.610625], [100.186913, 1.611331], [100.188479, 1.610647], [100.187755, 1.609882], [100.187217, 1.609259], [100.187084, 1.609294], [100.186174, 1.610625]]]}}, {"type": "Feature", "properties": {"division_code": 1, "block_code": 38, "block_label": "1-38", "planted_ha": 3.95, "palms": 536, "planted_year": 2015, "abw_kg": 22.4, "rotation_target_days": 10, "gang_code": "", "road_condition": "good", "bunches_per_day": 18.7, "centroid_lon": 100.188444, "centroid_lat": 1.60933}, "geometry": {"type": "Polygon", "coordinates": [[[100.187247, 1.609239], [100.187782, 1.609858], [100.188519, 1.610636], [100.188635, 1.610655], [100.189531, 1.609313], [100.18951, 1.608935], [100.188188, 1.608121], [100.187247, 1.609239]]]}}, {"type": "Feature", "properties": {"division_code": 1, "block_code": 39, "block_label": "1-39", "planted_ha": 4.61, "palms": 633, "planted_year": 2014, "abw_kg": 22.6, "rotation_target_days": 10, "gang_code": "", "road_condition": "good", "bunches_per_day": 20.8, "centroid_lon": 100.192099, "centroid_lat": 1.610189}, "geometry": {"type": "Polygon", "coordinates": [[[100.191859, 1.611519], [100.192499, 1.611339], [100.193113, 1.610261], [100.193109, 1.609751], [100.192161, 1.608625], [100.190995, 1.610228], [100.191037, 1.61063], [100.191859, 1.611519]]]}}, {"type": "Feature", "properties": {"division_code": 1, "block_code": 40, "block_label": "1-40", "planted_ha": 3.07, "palms": 420, "planted_year": 2015, "abw_kg": 21.6, "rotation_target_days": 10, "gang_code": "", "road_condition": "fair", "bunches_per_day": 14.2, "centroid_lon": 100.194317, "centroid_lat": 1.609983}, "geometry": {"type": "Polygon", "coordinates": [[[100.194764, 1.610823], [100.195526, 1.610285], [100.195036, 1.609651], [100.194582, 1.609012], [100.193145, 1.609755], [100.193149, 1.610253], [100.194764, 1.610823]]]}}, {"type": "Feature", "properties": {"division_code": 1, "block_code": 41, "block_label": "1-41", "planted_ha": 4.1, "palms": 568, "planted_year": 2015, "abw_kg": 21.6, "rotation_target_days": 10, "gang_code": "", "road_condition": "good", "bunches_per_day": 20.9, "centroid_lon": 100.195748, "centroid_lat": 1.609072}, "geometry": {"type": "Polygon", "coordinates": [[[100.194607, 1.608985], [100.195065, 1.609629], [100.195561, 1.610272], [100.195851, 1.610304], [100.197114, 1.608858], [100.195754, 1.608017], [100.19471, 1.60842], [100.194607, 1.608985]]]}}, {"type": "Feature", "properties": {"division_code": 1, "block_code": 42, "block_label": "1-42", "planted_ha": 4.78, "palms": 657, "planted_year": 2015, "abw_kg": 22.0, "rotation_target_days": 10, "gang_code": "", "road_condition": "fair", "bunches_per_day": 25.1, "centroid_lon": 100.197221, "centroid_lat": 1.610178}, "geometry": {"type": "Polygon", "coordinates": [[[100.196773, 1.611426], [100.197056, 1.61148], [100.197849, 1.610777], [100.198652, 1.610025], [100.198646, 1.609892], [100.197211, 1.608857], [100.197151, 1.60887], [100.195881, 1.610323], [100.196773, 1.611426]]]}}, {"type": "Feature", "properties": {"division_code": 1, "block_code": 43, "block_label": "1-43", "planted_ha": 4.05, "palms": 558, "planted_year": 2016, "abw_kg": 21.0, "rotation_target_days": 10, "gang_code": "", "road_condition": "good", "bunches_per_day": 18.9, "centroid_lon": 100.199833, "centroid_lat": 1.609993}, "geometry": {"type": "Polygon", "coordinates": [[[100.198688, 1.610027], [100.199483, 1.611257], [100.199645, 1.611297], [100.200938, 1.610068], [100.200925, 1.609613], [100.199983, 1.608716], [100.198682, 1.609891], [100.198688, 1.610027]]]}}, {"type": "Feature", "properties": {"division_code": 1, "block_code": 44, "block_label": "1-44", "planted_ha": 4.06, "palms": 530, "planted_year": 2011, "abw_kg": 22.3, "rotation_target_days": 10, "gang_code": "", "road_condition": "fair", "bunches_per_day": 20.9, "centroid_lon": 100.179531, "centroid_lat": 1.608234}, "geometry": {"type": "Polygon", "coordinates": [[[100.179063, 1.609305], [100.17958, 1.609371], [100.180785, 1.608178], [100.180771, 1.607831], [100.179196, 1.607095], [100.178423, 1.60809], [100.178435, 1.608337], [100.179063, 1.609305]]]}}, {"type": "Feature", "properties": {"division_code": 1, "block_code": 45, "block_label": "1-45", "planted_ha": 4.15, "palms": 547, "planted_year": 2012, "abw_kg": 22.3, "rotation_target_days": 10, "gang_code": "", "road_condition": "good", "bunches_per_day": 21.8, "centroid_lon": 100.181898, "centroid_lat": 1.607804}, "geometry": {"type": "Polygon", "coordinates": [[[100.18082, 1.608176], [100.182101, 1.609041], [100.182996, 1.608176], [100.183018, 1.607977], [100.18224, 1.606694], [100.181443, 1.606673], [100.180807, 1.607824], [100.18082, 1.608176]]]}}, {"type": "Feature", "properties": {"division_code": 1, "block_code": 46, "block_label": "1-46", "planted_ha": 4.02, "palms": 555, "planted_year": 2013, "abw_kg": 22.2, "rotation_target_days": 10, "gang_code": "", "road_condition": "good", "bunches_per_day": 21.6, "centroid_lon": 100.184442, "centroid_lat": 1.608043}, "geometry": {"type": "Polygon", "coordinates": [[[100.184701, 1.609212], [100.185524, 1.60823], [100.185535, 1.607912], [100.185539, 1.607757], [100.184765, 1.606866], [100.183054, 1.607983], [100.183032, 1.608176], [100.184701, 1.609212]]]}}, {"type": "Feature", "properties": {"division_code": 1, "block_code": 47, "block_label": "1-47", "planted_ha": 3.98, "palms": 536, "planted_year": 2014, "abw_kg": 22.6, "rotation_target_days": 10, "gang_code": "", "road_condition": "fair", "bunches_per_day": 18.0, "centroid_lon": 100.18686, "centroid_lat": 1.608141}, "geometry": {"type": "Polygon", "coordinates": [[[100.18556, 1.608227], [100.187076, 1.609259], [100.187213, 1.609222], [100.188166, 1.608091], [100.188155, 1.607924], [100.186906, 1.607139], [100.185575, 1.607762], [100.18556, 1.608227]]]}}, {"type": "Feature", "properties": {"division_code": 1, "block_code": 48, "block_label": "1-48", "planted_ha": 3.93, "palms": 544, "planted_year": 2016, "abw_kg": 20.4, "rotation_target_days": 10, "gang_code": "", "road_condition": "fair", "bunches_per_day": 17.6, "centroid_lon": 100.190784, "centroid_lat": 1.609018}, "geometry": {"type": "Polygon", "coordinates": [[[100.189566, 1.609307], [100.190972, 1.610198], [100.192142, 1.608592], [100.192134, 1.608541], [100.190572, 1.608015], [100.189545, 1.608932], [100.189566, 1.609307]]]}}, {"type": "Feature", "properties": {"division_code": 1, "block_code": 49, "block_label": "1-49", "planted_ha": 4.55, "palms": 622, "planted_year": 2015, "abw_kg": 21.7, "rotation_target_days": 10, "gang_code": "", "road_condition": "good", "bunches_per_day": 22.9, "centroid_lon": 100.193432, "centroid_lat": 1.608495}, "geometry": {"type": "Polygon", "coordinates": [[[100.192178, 1.608589], [100.193131, 1.609721], [100.194572, 1.608977], [100.194675, 1.608412], [100.193671, 1.607328], [100.192923, 1.607473], [100.19217, 1.608532], [100.192178, 1.608589]]]}}, {"type": "Feature", "properties": {"division_code": 1, "block_code": 50, "block_label": "1-50", "planted_ha": 5.84, "palms": 775, "planted_year": 2015, "abw_kg": 22.3, "rotation_target_days": 10, "gang_code": "", "road_condition": "good", "bunches_per_day": 28.8, "centroid_lon": 100.198622, "centroid_lat": 1.608407}, "geometry": {"type": "Polygon", "coordinates": [[[100.197973, 1.607202], [100.197238, 1.608832], [100.198663, 1.60986], [100.199967, 1.608682], [100.200044, 1.608281], [100.1987, 1.606992], [100.197973, 1.607202]]]}}, {"type": "Feature", "properties": {"division_code": 1, "block_code": 51, "block_label": "1-51", "planted_ha": 1.46, "palms": 195, "planted_year": 2015, "abw_kg": 22.1, "rotation_target_days": 10, "gang_code": "", "road_condition": "fair", "bunches_per_day": 7.2, "centroid_lon": 100.200635, "centroid_lat": 1.608618}, "geometry": {"type": "Polygon", "coordinates": [[[100.200946, 1.609583], [100.201048, 1.609528], [100.201022, 1.607875], [100.200678, 1.607835], [100.20008, 1.608285], [100.200003, 1.608685], [100.200946, 1.609583]]]}}, {"type": "Feature", "properties": {"division_code": 2, "block_code": 1, "block_label": "2-1", "planted_ha": 1.44, "palms": 190, "planted_year": 2012, "abw_kg": 21.7, "rotation_target_days": 10, "gang_code": "", "road_condition": "fair", "bunches_per_day": 7.0, "centroid_lon": 100.178668, "centroid_lat": 1.606867}, "geometry": {"type": "Polygon", "coordinates": [[[100.179172, 1.607067], [100.179157, 1.60646], [100.178228, 1.605876], [100.178358, 1.607189], [100.17842, 1.608036], [100.179172, 1.607067]]]}}, {"type": "Feature", "properties": {"division_code": 2, "block_code": 2, "block_label": "2-2", "planted_ha": 3.79, "palms": 524, "planted_year": 2013, "abw_kg": 22.0, "rotation_target_days": 10, "gang_code": "", "road_condition": "fair", "bunches_per_day": 20.2, "centroid_lon": 100.180319, "centroid_lat": 1.606662}, "geometry": {"type": "Polygon", "coordinates": [[[100.179208, 1.607061], [100.180781, 1.607796], [100.181411, 1.606655], [100.18093, 1.60595], [100.180543, 1.605432], [100.179193, 1.606458], [100.179208, 1.607061]]]}}, {"type": "Feature", "properties": {"division_code": 2, "block_code": 3, "block_label": "2-3", "planted_ha": 3.59, "palms": 480, "planted_year": 2013, "abw_kg": 22.1, "rotation_target_days": 10, "gang_code": "", "road_condition": "good", "bunches_per_day": 18.2, "centroid_lon": 100.183425, "centroid_lat": 1.606796}, "geometry": {"type": "Polygon", "coordinates": [[[100.183042, 1.607948], [100.184748, 1.606834], [100.184697, 1.606589], [100.183204, 1.605731], [100.182273, 1.606679], [100.183042, 1.607948]]]}}, {"type": "Feature", "properties": {"division_code": 2, "block_code": 4, "block_label": "2-4", "planted_ha": 4.45, "palms": 611, "planted_year": 2014, "abw_kg": 21.4, "rotation_target_days": 10, "gang_code": "", "road_condition": "poor", "bunches_per_day": 22.2, "centroid_lon": 100.185918, "centroid_lat": 1.606517}, "geometry": {"type": "Polygon", "coordinates": [[[100.184784, 1.606834], [100.185563, 1.607729], [100.186891, 1.607107], [100.187052, 1.605915], [100.185595, 1.605304], [100.184733, 1.606581], [100.184784, 1.606834]]]}}, {"type": "Feature", "properties": {"division_code": 2, "block_code": 5, "block_label": "2-5", "planted_ha": 4.16, "palms": 547, "planted_year": 2014, "abw_kg": 22.0, "rotation_target_days": 10, "gang_code": "", "road_condition": "fair", "bunches_per_day": 22.4, "centroid_lon": 100.187937, "centroid_lat": 1.606562}, "geometry": {"type": "Polygon", "coordinates": [[[100.188167, 1.607888], [100.189065, 1.6064], [100.188163, 1.605279], [100.187088, 1.605915], [100.186927, 1.60711], [100.188167, 1.607888]]]}}, {"type": "Feature", "properties": {"division_code": 2, "block_code": 6, "block_label": "2-6", "planted_ha": 4.43, "palms": 606, "planted_year": 2015, "abw_kg": 21.5, "rotation_target_days": 10, "gang_code": "", "road_condition": "fair", "bunches_per_day": 22.8, "centroid_lon": 100.189407, "centroid_lat": 1.607666}, "geometry": {"type": "Polygon", "coordinates": [[[100.188201, 1.608087], [100.189525, 1.608902], [100.190548, 1.607988], [100.190423, 1.607263], [100.18942, 1.606398], [100.189097, 1.606417], [100.188191, 1.607918], [100.188201, 1.608087]]]}}, {"type": "Feature", "properties": {"division_code": 2, "block_code": 7, "block_label": "2-7", "planted_ha": 4.17, "palms": 558, "planted_year": 2017, "abw_kg": 18.6, "rotation_target_days": 10, "gang_code": "", "road_condition": "fair", "bunches_per_day": 18.6, "centroid_lon": 100.191663, "centroid_lat": 1.607416}, "geometry": {"type": "Polygon", "coordinates": [[[100.190459, 1.607261], [100.190583, 1.607981], [100.192144, 1.608506], [100.19289, 1.607457], [100.191823, 1.60613], [100.190459, 1.607261]]]}}, {"type": "Feature", "properties": {"division_code": 2, "block_code": 8, "block_label": "2-8", "planted_ha": 3.43, "palms": 467, "planted_year": 2016, "abw_kg": 20.7, "rotation_target_days": 10, "gang_code": "", "road_condition": "good", "bunches_per_day": 16.5, "centroid_lon": 100.194837, "centroid_lat": 1.607363}, "geometry": {"type": "Polygon", "coordinates": [[[100.1937, 1.607306], [100.194699, 1.608385], [100.195739, 1.607984], [100.195863, 1.606932], [100.194287, 1.606364], [100.1937, 1.607306]]]}}, {"type": "Feature", "properties": {"division_code": 2, "block_code": 9, "block_label": "2-9", "planted_ha": 4.36, "palms": 601, "planted_year": 2015, "abw_kg": 22.2, "rotation_target_days": 10, "gang_code": "", "road_condition": "fair", "bunches_per_day": 20.3, "centroid_lon": 100.196806, "centroid_lat": 1.607475}, "geometry": {"type": "Polygon", "coordinates": [[[100.195775, 1.607987], [100.197145, 1.608834], [100.197203, 1.608822], [100.197938, 1.607192], [100.196747, 1.60611], [100.195899, 1.606928], [100.195775, 1.607987]]]}}, {"type": "Feature", "properties": {"division_code": 2, "block_code": 10, "block_label": "2-10", "planted_ha": 4.35, "palms": 597, "planted_year": 2016, "abw_kg": 20.9, "rotation_target_days": 10, "gang_code": "", "road_condition": "good", "bunches_per_day": 21.3, "centroid_lon": 100.199913, "centroid_lat": 1.606884}, "geometry": {"type": "Polygon", "coordinates": [[[100.198727, 1.606968], [100.200065, 1.608251], [100.200657, 1.607806], [100.200952, 1.606466], [100.199895, 1.605642], [100.199349, 1.605818], [100.198727, 1.606968]]]}}, {"type": "Feature", "properties": {"division_code": 2, "block_code": 11, "block_label": "2-11", "planted_ha": 4.34, "palms": 589, "planted_year": 2013, "abw_kg": 22.4, "rotation_target_days": 10, "gang_code": "", "road_condition": "fair", "bunches_per_day": 22.4, "centroid_lon": 100.179233, "centroid_lat": 1.605242}, "geometry": {"type": "Polygon", "coordinates": [[[100.179174, 1.606427], [100.180529, 1.605398], [100.180529, 1.605161], [100.179447, 1.60414], [100.179033, 1.604107], [100.178127, 1.604929], [100.178223, 1.60583], [100.179174, 1.606427]]]}}, {"type": "Feature", "properties": {"division_code": 2, "block_code": 12, "block_label": "2-12", "planted_ha": 4.91, "palms": 655, "planted_year": 2013, "abw_kg": 22.2, "rotation_target_days": 10, "gang_code": "", "road_condition": "good", "bunches_per_day": 25.5, "centroid_lon": 100.181914, "centroid_lat": 1.605525}, "geometry": {"type": "Polygon", "coordinates": [[[100.180565, 1.605401], [100.180959, 1.605929], [100.181442, 1.606637], [100.182244, 1.606658], [100.183182, 1.605702], [100.183066, 1.605042], [100.182011, 1.604311], [100.180565, 1.605164], [100.180565, 1.605401]]]}}, {"type": "Feature", "properties": {"division_code": 2, "block_code": 13, "block_label": "2-13", "planted_ha": 4.66, "palms": 625, "planted_year": 2013, "abw_kg": 21.7, "rotation_target_days": 10, "gang_code": "", "road_condition": "good", "bunches_per_day": 22.0, "centroid_lon": 100.184355, "centroid_lat": 1.605254}, "geometry": {"type": "Polygon", "coordinates": [[[100.184708, 1.606554], [100.185569, 1.605277], [100.185525, 1.604962], [100.184395, 1.603938], [100.183102, 1.605038], [100.183217, 1.605697], [100.184708, 1.606554]]]}}, {"type": "Feature", "properties": {"division_code": 2, "block_code": 14, "block_label": "2-14", "planted_ha": 4.2, "palms": 569, "planted_year": 2016, "abw_kg": 20.7, "rotation_target_days": 10, "gang_code": "", "road_condition": "good", "bunches_per_day": 20.6, "centroid_lon": 100.189447, "centroid_lat": 1.605159}, "geometry": {"type": "Polygon", "coordinates": [[[100.188186, 1.60525], [100.189095, 1.606381], [100.189419, 1.606362], [100.190606, 1.605131], [100.190473, 1.604512], [100.18963, 1.603925], [100.188196, 1.60515], [100.188186, 1.60525]]]}}, {"type": "Feature", "properties": {"division_code": 2, "block_code": 15, "block_label": "2-15", "planted_ha": 3.12, "palms": 422, "planted_year": 2016, "abw_kg": 20.6, "rotation_target_days": 10, "gang_code": "", "road_condition": "poor", "bunches_per_day": 15.4, "centroid_lon": 100.190638, "centroid_lat": 1.606181}, "geometry": {"type": "Polygon", "coordinates": [[[100.189453, 1.606378], [100.190439, 1.60723], [100.191806, 1.606097], [100.191783, 1.605869], [100.190628, 1.60516], [100.189453, 1.606378]]]}}, {"type": "Feature", "properties": {"division_code": 2, "block_code": 16, "block_label": "2-16", "planted_ha": 4.88, "palms": 666, "planted_year": 2017, "abw_kg": 19.6, "rotation_target_days": 10, "gang_code": "", "road_condition": "fair", "bunches_per_day": 22.7, "centroid_lon": 100.193098, "centroid_lat": 1.606169}, "geometry": {"type": "Polygon", "coordinates": [[[100.191842, 1.606098], [100.19292, 1.607436], [100.193666, 1.607292], [100.194261, 1.606337], [100.194249, 1.605761], [100.192863, 1.60485], [100.191818, 1.605865], [100.191842, 1.606098]]]}}, {"type": "Feature", "properties": {"division_code": 2, "block_code": 17, "block_label": "2-17", "planted_ha": 3.9, "palms": 539, "planted_year": 2017, "abw_kg": 19.0, "rotation_target_days": 10, "gang_code": "", "road_condition": "good", "bunches_per_day": 19.6, "centroid_lon": 100.195484, "centroid_lat": 1.605903}, "geometry": {"type": "Polygon", "coordinates": [[[100.194297, 1.606329], [100.195878, 1.606899], [100.196728, 1.606078], [100.19671, 1.605768], [100.195387, 1.604768], [100.194285, 1.605759], [100.194297, 1.606329]]]}}, {"type": "Feature", "properties": {"division_code": 2, "block_code": 18, "block_label": "2-18", "planted_ha": 4.79, "palms": 658, "planted_year": 2016, "abw_kg": 20.0, "rotation_target_days": 10, "gang_code": "", "road_condition": "good", "bunches_per_day": 24.2, "centroid_lon": 100.198022, "centroid_lat": 1.60593}, "geometry": {"type": "Polygon", "coordinates": [[[100.196764, 1.606077], [100.197965, 1.607167], [100.198693, 1.606956], [100.199314, 1.605808], [100.19792, 1.604545], [100.196746, 1.605765], [100.196764, 1.606077]]]}}, {"type": "Feature", "properties": {"division_code": 2, "block_code": 19, "block_label": "2-19", "planted_ha": 1.26, "palms": 166, "planted_year": 2016, "abw_kg": 20.9, "rotation_target_days": 10, "gang_code": "", "road_condition": "good", "bunches_per_day": 6.4, "centroid_lon": 100.200527, "centroid_lat": 1.605472}, "geometry": {"type": "Polygon", "coordinates": [[[100.199921, 1.605616], [100.200529, 1.606087], [100.200967, 1.606432], [100.200795, 1.604725], [100.200438, 1.604628], [100.199921, 1.605616]]]}}, {"type": "Feature", "properties": {"division_code": 2, "block_code": 20, "block_label": "2-20", "planted_ha": 1.22, "palms": 163, "planted_year": 2014, "abw_kg": 21.4, "rotation_target_days": 10, "gang_code": "", "road_condition": "poor", "bunches_per_day": 5.8, "centroid_lon": 100.17836, "centroid_lat": 1.603934}, "geometry": {"type": "Polygon", "coordinates": [[[100.179002, 1.604086], [100.178126, 1.602993], [100.177955, 1.603094], [100.178122, 1.604884], [100.179002, 1.604086]]]}}, {"type": "Feature", "properties": {"division_code": 2, "block_code": 21, "block_label": "2-21", "planted_ha": 4.5, "palms": 602, "planted_year": 2013, "abw_kg": 21.8, "rotation_target_days": 10, "gang_code": "", "road_condition": "good", "bunches_per_day": 23.8, "centroid_lon": 100.180675, "centroid_lat": 1.603863}, "geometry": {"type": "Polygon", "coordinates": [[[100.180549, 1.605131], [100.181992, 1.60428], [100.180735, 1.60245], [100.18037, 1.602506], [100.179477, 1.604119], [100.180549, 1.605131]]]}}, {"type": "Feature", "properties": {"division_code": 2, "block_code": 22, "block_label": "2-22", "planted_ha": 3.61, "palms": 498, "planted_year": 2013, "abw_kg": 21.7, "rotation_target_days": 10, "gang_code": "", "road_condition": "poor", "bunches_per_day": 18.7, "centroid_lon": 100.183192, "centroid_lat": 1.603866}, "geometry": {"type": "Polygon", "coordinates": [[[100.182027, 1.604271], [100.183082, 1.605008], [100.183894, 1.604331], [100.184377, 1.603906], [100.184377, 1.603881], [100.183197, 1.602516], [100.182027, 1.604271]]]}}, {"type": "Feature", "properties": {"division_code": 2, "block_code": 23, "block_label": "2-23", "planted_ha": 3.95, "palms": 532, "planted_year": 2013, "abw_kg": 22.3, "rotation_target_days": 10, "gang_code": "", "road_condition": "fair", "bunches_per_day": 19.6, "centroid_lon": 100.185645, "centroid_lat": 1.603657}, "geometry": {"type": "Polygon", "coordinates": [[[100.184413, 1.603905], [100.18554, 1.604928], [100.186905, 1.60352], [100.18578, 1.602402], [100.185628, 1.602437], [100.184815, 1.603393], [100.184413, 1.603881], [100.184413, 1.603905]]]}}, {"type": "Feature", "properties": {"division_code": 2, "block_code": 24, "block_label": "2-24", "planted_ha": 4.08, "palms": 541, "planted_year": 2013, "abw_kg": 21.8, "rotation_target_days": 10, "gang_code": "", "road_condition": "fair", "bunches_per_day": 19.1, "centroid_lon": 100.186864, "centroid_lat": 1.604862}, "geometry": {"type": "Polygon", "coordinates": [[[100.18707, 1.605884], [100.18815, 1.605245], [100.18816, 1.605146], [100.18696, 1.603542], [100.186937, 1.603539], [100.18556, 1.604959], [100.185604, 1.605268], [100.18707, 1.605884]]]}}, {"type": "Feature", "properties": {"division_code": 2, "block_code": 25, "block_label": "2-25", "planted_ha": 4.26, "palms": 560, "planted_year": 2014, "abw_kg": 21.7, "rotation_target_days": 10, "gang_code": "", "road_condition": "good", "bunches_per_day": 22.8, "centroid_lon": 100.188308, "centroid_lat": 1.603786}, "geometry": {"type": "Polygon", "coordinates": [[[100.186995, 1.603528], [100.188182, 1.605114], [100.189609, 1.603895], [100.18956, 1.603681], [100.188312, 1.602564], [100.186995, 1.603528]]]}}, {"type": "Feature", "properties": {"division_code": 2, "block_code": 26, "block_label": "2-26", "planted_ha": 3.57, "palms": 490, "planted_year": 2016, "abw_kg": 20.5, "rotation_target_days": 10, "gang_code": "", "road_condition": "poor", "bunches_per_day": 16.1, "centroid_lon": 100.191638, "centroid_lat": 1.604753}, "geometry": {"type": "Polygon", "coordinates": [[[100.191797, 1.605836], [100.192842, 1.60482], [100.192834, 1.604737], [100.191722, 1.603641], [100.190509, 1.604509], [100.190641, 1.605126], [100.191797, 1.605836]]]}}, {"type": "Feature", "properties": {"division_code": 2, "block_code": 27, "block_label": "2-27", "planted_ha": 4.02, "palms": 534, "planted_year": 2017, "abw_kg": 19.1, "rotation_target_days": 10, "gang_code": "", "road_condition": "poor", "bunches_per_day": 19.9, "centroid_lon": 100.194114, "centroid_lat": 1.604566}, "geometry": {"type": "Polygon", "coordinates": [[[100.192878, 1.604816], [100.194265, 1.605728], [100.195367, 1.604738], [100.195353, 1.604549], [100.193907, 1.603256], [100.19287, 1.604734], [100.192878, 1.604816]]]}}, {"type": "Feature", "properties": {"division_code": 2, "block_code": 28, "block_label": "2-28", "planted_ha": 4.45, "palms": 583, "planted_year": 2017, "abw_kg": 19.7, "rotation_target_days": 10, "gang_code": "", "road_condition": "fair", "bunches_per_day": 22.8, "centroid_lon": 100.196651, "centroid_lat": 1.604443}, "geometry": {"type": "Polygon", "coordinates": [[[100.195403, 1.604736], [100.196726, 1.605734], [100.197902, 1.604512], [100.197903, 1.604296], [100.196729, 1.603195], [100.196497, 1.603157], [100.195389, 1.604546], [100.195403, 1.604736]]]}}, {"type": "Feature", "properties": {"division_code": 2, "block_code": 29, "block_label": "2-29", "planted_ha": 4.41, "palms": 604, "planted_year": 2016, "abw_kg": 20.5, "rotation_target_days": 10, "gang_code": "", "road_condition": "good", "bunches_per_day": 22.8, "centroid_lon": 100.199255, "centroid_lat": 1.60456}, "geometry": {"type": "Polygon", "coordinates": [[[100.199341, 1.605783], [100.199886, 1.605606], [100.20041, 1.604604], [100.200357, 1.604213], [100.199142, 1.60334], [100.197939, 1.604297], [100.197938, 1.604512], [100.199341, 1.605783]]]}}, {"type": "Feature", "properties": {"division_code": 2, "block_code": 30, "block_label": "2-30", "planted_ha": 3.98, "palms": 539, "planted_year": 2013, "abw_kg": 22.5, "rotation_target_days": 10, "gang_code": "", "road_condition": "good", "bunches_per_day": 20.7, "centroid_lon": 100.179172, "centroid_lat": 1.60284}, "geometry": {"type": "Polygon", "coordinates": [[[100.178148, 1.602963], [100.179036, 1.604071], [100.179444, 1.604104], [100.180335, 1.602496], [100.178947, 1.601579], [100.178144, 1.602597], [100.178148, 1.602963]]]}}, {"type": "Feature", "properties": {"division_code": 2, "block_code": 31, "block_label": "2-31", "planted_ha": 3.79, "palms": 525, "planted_year": 2013, "abw_kg": 22.1, "rotation_target_days": 10, "gang_code": "", "road_condition": "good", "bunches_per_day": 19.1, "centroid_lon": 100.181936, "centroid_lat": 1.602792}, "geometry": {"type": "Polygon", "coordinates": [[[100.180767, 1.602432], [100.182009, 1.604235], [100.183176, 1.602483], [100.183165, 1.602435], [100.181444, 1.6017], [100.180767, 1.602432]]]}}, {"type": "Feature", "properties": {"division_code": 2, "block_code": 32, "block_label": "2-32", "planted_ha": 3.42, "palms": 459, "planted_year": 2012, "abw_kg": 22.1, "rotation_target_days": 10, "gang_code": "", "road_condition": "good", "bunches_per_day": 15.4, "centroid_lon": 100.184327, "centroid_lat": 1.602607}, "geometry": {"type": "Polygon", "coordinates": [[[100.183212, 1.602478], [100.184394, 1.603846], [100.18559, 1.602426], [100.183907, 1.601542], [100.1832, 1.602426], [100.183212, 1.602478]]]}}, {"type": "Feature", "properties": {"division_code": 2, "block_code": 33, "block_label": "2-33", "planted_ha": 3.98, "palms": 524, "planted_year": 2013, "abw_kg": 21.8, "rotation_target_days": 10, "gang_code": "", "road_condition": "good", "bunches_per_day": 18.1, "centroid_lon": 100.186936, "centroid_lat": 1.60231}, "geometry": {"type": "Polygon", "coordinates": [[[100.185807, 1.602379], [100.186646, 1.603225], [100.186938, 1.603503], [100.186965, 1.603506], [100.188295, 1.602531], [100.188302, 1.602424], [100.187412, 1.601757], [100.186423, 1.600955], [100.185807, 1.602379]]]}}, {"type": "Feature", "properties": {"division_code": 2, "block_code": 34, "block_label": "2-34", "planted_ha": 4.14, "palms": 565, "planted_year": 2014, "abw_kg": 22.3, "rotation_target_days": 10, "gang_code": "", "road_condition": "good", "bunches_per_day": 21.5, "centroid_lon": 100.189487, "centroid_lat": 1.602302}, "geometry": {"type": "Polygon", "coordinates": [[[100.188338, 1.602421], [100.188331, 1.602533], [100.189575, 1.603646], [100.190527, 1.602487], [100.190432, 1.60174], [100.18929, 1.601006], [100.189258, 1.601013], [100.188338, 1.602421]]]}}, {"type": "Feature", "properties": {"division_code": 2, "block_code": 35, "block_label": "2-35", "planted_ha": 2.9, "palms": 382, "planted_year": 2015, "abw_kg": 21.4, "rotation_target_days": 10, "gang_code": "", "road_condition": "poor", "bunches_per_day": 15.3, "centroid_lon": 100.190651, "centroid_lat": 1.603522}, "geometry": {"type": "Polygon", "coordinates": [[[100.189645, 1.603891], [100.190489, 1.604479], [100.191706, 1.603608], [100.191726, 1.603259], [100.19055, 1.602516], [100.189596, 1.603677], [100.189645, 1.603891]]]}}, {"type": "Feature", "properties": {"division_code": 2, "block_code": 36, "block_label": "2-36", "planted_ha": 3.79, "palms": 518, "planted_year": 2016, "abw_kg": 20.1, "rotation_target_days": 10, "gang_code": "", "road_condition": "good", "bunches_per_day": 20.3, "centroid_lon": 100.192789, "centroid_lat": 1.603361}, "geometry": {"type": "Polygon", "coordinates": [[[100.191742, 1.60361], [100.192849, 1.604701], [100.193885, 1.603224], [100.193856, 1.603002], [100.192701, 1.602104], [100.191762, 1.603257], [100.191742, 1.60361]]]}}, {"type": "Feature", "properties": {"division_code": 2, "block_code": 37, "block_label": "2-37", "planted_ha": 4.22, "palms": 563, "planted_year": 2017, "abw_kg": 19.4, "rotation_target_days": 10, "gang_code": "", "road_condition": "poor", "bunches_per_day": 20.1, "centroid_lon": 100.195207, "centroid_lat": 1.603192}, "geometry": {"type": "Polygon", "coordinates": [[[100.193921, 1.60322], [100.195368, 1.604514], [100.196466, 1.603138], [100.195364, 1.601954], [100.193892, 1.603], [100.193921, 1.60322]]]}}, {"type": "Feature", "properties": {"division_code": 2, "block_code": 38, "block_label": "2-38", "planted_ha": 4.06, "palms": 536, "planted_year": 2017, "abw_kg": 19.4, "rotation_target_days": 10, "gang_code": "", "road_condition": "fair", "bunches_per_day": 19.1, "centroid_lon": 100.198046, "centroid_lat": 1.603028}, "geometry": {"type": "Polygon", "coordinates": [[[100.197923, 1.604264], [100.199123, 1.603309], [100.199123, 1.602805], [100.198157, 1.601675], [100.19746, 1.602447], [100.196763, 1.603177], [100.197923, 1.604264]]]}}, {"type": "Feature", "properties": {"division_code": 2, "block_code": 39, "block_label": "2-39", "planted_ha": 2.55, "palms": 339, "planted_year": 2017, "abw_kg": 19.0, "rotation_target_days": 10, "gang_code": "", "road_condition": "good", "bunches_per_day": 11.5, "centroid_lon": 100.200021, "centroid_lat": 1.603095}, "geometry": {"type": "Polygon", "coordinates": [[[100.199159, 1.603308], [100.200371, 1.604179], [100.200684, 1.603838], [100.20048, 1.601932], [100.199159, 1.602808], [100.199159, 1.603308]]]}}, {"type": "Feature", "properties": {"division_code": 2, "block_code": 40, "block_label": "2-40", "planted_ha": 1.8, "palms": 248, "planted_year": 2014, "abw_kg": 22.3, "rotation_target_days": 10, "gang_code": "", "road_condition": "fair", "bunches_per_day": 9.7, "centroid_lon": 100.178213, "centroid_lat": 1.601485}, "geometry": {"type": "Polygon", "coordinates": [[[100.178121, 1.602569], [100.178924, 1.60155], [100.178888, 1.60136], [100.177771, 1.600322], [100.177712, 1.600331], [100.177901, 1.602464], [100.178121, 1.602569]]]}}, {"type": "Feature", "properties": {"division_code": 2, "block_code": 41, "block_label": "2-41", "planted_ha": 4.05, "palms": 538, "planted_year": 2013, "abw_kg": 22.4, "rotation_target_days": 10, "gang_code": "", "road_condition": "fair", "bunches_per_day": 20.2, "centroid_lon": 100.180254, "centroid_lat": 1.601413}, "geometry": {"type": "Polygon", "coordinates": [[[100.17896, 1.601544], [100.180363, 1.602471], [100.180735, 1.602413], [100.181421, 1.601671], [100.181415, 1.60117], [100.180039, 1.600256], [100.178924, 1.601357], [100.17896, 1.601544]]]}}, {"type": "Feature", "properties": {"division_code": 2, "block_code": 42, "block_label": "2-42", "planted_ha": 4.73, "palms": 643, "planted_year": 2013, "abw_kg": 22.1, "rotation_target_days": 10, "gang_code": "", "road_condition": "good", "bunches_per_day": 25.4, "centroid_lon": 100.18266, "centroid_lat": 1.601186}, "geometry": {"type": "Polygon", "coordinates": [[[100.181457, 1.601666], [100.183175, 1.6024], [100.183884, 1.601513], [100.183882, 1.601079], [100.183092, 1.60039], [100.182492, 1.599833], [100.182317, 1.599816], [100.181451, 1.601165], [100.181457, 1.601666]]]}}, {"type": "Feature", "properties": {"division_code": 2, "block_code": 43, "block_label": "2-43", "planted_ha": 4.28, "palms": 586, "planted_year": 2013, "abw_kg": 22.3, "rotation_target_days": 10, "gang_code": "", "road_condition": "poor", "bunches_per_day": 18.9, "centroid_lon": 100.185219, "centroid_lat": 1.601214}, "geometry": {"type": "Polygon", "coordinates": [[[100.18392, 1.601509], [100.185621, 1.602402], [100.185773, 1.602367], [100.186397, 1.600909], [100.185584, 1.600125], [100.185299, 1.600064], [100.183918, 1.60108], [100.18392, 1.601509]]]}}, {"type": "Feature", "properties": {"division_code": 2, "block_code": 44, "block_label": "2-44", "planted_ha": 4.14, "palms": 564, "planted_year": 2013, "abw_kg": 22.5, "rotation_target_days": 10, "gang_code": "", "road_condition": "fair", "bunches_per_day": 21.9, "centroid_lon": 100.187933, "centroid_lat": 1.601114}, "geometry": {"type": "Polygon", "coordinates": [[[100.188316, 1.60239], [100.189223, 1.601001], [100.187926, 1.599986], [100.186434, 1.600917], [100.187434, 1.601729], [100.188316, 1.60239]]]}}, {"type": "Feature", "properties": {"division_code": 2, "block_code": 45, "block_label": "2-45", "planted_ha": 3.56, "palms": 475, "planted_year": 2015, "abw_kg": 22.5, "rotation_target_days": 10, "gang_code": "", "road_condition": "poor", "bunches_per_day": 16.4, "centroid_lon": 100.1916, "centroid_lat": 1.602106}, "geometry": {"type": "Polygon", "coordinates": [[[100.191741, 1.603226], [100.192679, 1.602074], [100.19258, 1.601588], [100.192137, 1.60111], [100.190468, 1.601741], [100.190562, 1.602481], [100.191741, 1.603226]]]}}, {"type": "Feature", "properties": {"division_code": 2, "block_code": 46, "block_label": "2-46", "planted_ha": 4.31, "palms": 575, "planted_year": 2017, "abw_kg": 18.8, "rotation_target_days": 10, "gang_code": "", "road_condition": "good", "bunches_per_day": 23.0, "centroid_lon": 100.193992, "centroid_lat": 1.601822}, "geometry": {"type": "Polygon", "coordinates": [[[100.192715, 1.602069], [100.193872, 1.602969], [100.195348, 1.601921], [100.195344, 1.601729], [100.194437, 1.600718], [100.19334, 1.601224], [100.192617, 1.60159], [100.192715, 1.602069]]]}}, {"type": "Feature", "properties": {"division_code": 2, "block_code": 47, "block_label": "2-47", "planted_ha": 4.08, "palms": 547, "planted_year": 2018, "abw_kg": 17.9, "rotation_target_days": 10, "gang_code": "", "road_condition": "good", "bunches_per_day": 18.9, "centroid_lon": 100.196668, "centroid_lat": 1.601974}, "geometry": {"type": "Polygon", "coordinates": [[[100.195384, 1.601923], [100.196499, 1.60312], [100.196731, 1.603158], [100.197434, 1.602422], [100.198137, 1.601642], [100.196441, 1.600952], [100.19538, 1.60173], [100.195384, 1.601923]]]}}, {"type": "Feature", "properties": {"division_code": 2, "block_code": 48, "block_label": "2-48", "planted_ha": 4.12, "palms": 554, "planted_year": 2018, "abw_kg": 17.3, "rotation_target_days": 10, "gang_code": "", "road_condition": "good", "bunches_per_day": 20.7, "centroid_lon": 100.199325, "centroid_lat": 1.601537}, "geometry": {"type": "Polygon", "coordinates": [[[100.198173, 1.60164], [100.199145, 1.602775], [100.200476, 1.601891], [100.200434, 1.601401], [100.199477, 1.600387], [100.198739, 1.600565], [100.198173, 1.60164]]]}}, {"type": "Feature", "properties": {"division_code": 2, "block_code": 49, "block_label": "2-49", "planted_ha": 3.76, "palms": 512, "planted_year": 2014, "abw_kg": 21.5, "rotation_target_days": 10, "gang_code": "", "road_condition": "poor", "bunches_per_day": 18.0, "centroid_lon": 100.190731, "centroid_lat": 1.600823}, "geometry": {"type": "Polygon", "coordinates": [[[100.189318, 1.600981], [100.19045, 1.601709], [100.192122, 1.601077], [100.192021, 1.60037], [100.189981, 1.600017], [100.189318, 1.600981]]]}}, {"type": "Feature", "properties": {"division_code": 2, "block_code": 50, "block_label": "2-50", "planted_ha": 3.82, "palms": 528, "planted_year": 2018, "abw_kg": 18.3, "rotation_target_days": 10, "gang_code": "", "road_condition": "fair", "bunches_per_day": 19.6, "centroid_lon": 100.197549, "centroid_lat": 1.600516}, "geometry": {"type": "Polygon", "coordinates": [[[100.198144, 1.601597], [100.198706, 1.600552], [100.197876, 1.599475], [100.196477, 1.59995], [100.196457, 1.600919], [100.198144, 1.601597]]]}}, {"type": "Feature", "properties": {"division_code": 3, "block_code": 1, "block_label": "3-1", "planted_ha": 4.3, "palms": 578, "planted_year": 2013, "abw_kg": 21.9, "rotation_target_days": 10, "gang_code": "", "road_condition": "good", "bunches_per_day": 22.5, "centroid_lon": 100.178964, "centroid_lat": 1.599979}, "geometry": {"type": "Polygon", "coordinates": [[[100.1778, 1.600299], [100.178905, 1.601326], [100.180018, 1.600225], [100.180022, 1.599575], [100.179008, 1.598715], [100.178619, 1.598773], [100.1778, 1.600299]]]}}, {"type": "Feature", "properties": {"division_code": 3, "block_code": 2, "block_label": "3-2", "planted_ha": 3.72, "palms": 509, "planted_year": 2013, "abw_kg": 21.5, "rotation_target_days": 10, "gang_code": "", "road_condition": "fair", "bunches_per_day": 17.7, "centroid_lon": 100.181172, "centroid_lat": 1.599939}, "geometry": {"type": "Polygon", "coordinates": [[[100.180054, 1.600223], [100.181427, 1.601134], [100.182287, 1.599797], [100.181642, 1.598839], [100.180058, 1.599578], [100.180054, 1.600223]]]}}, {"type": "Feature", "properties": {"division_code": 3, "block_code": 3, "block_label": "3-3", "planted_ha": 3.98, "palms": 544, "planted_year": 2013, "abw_kg": 22.5, "rotation_target_days": 10, "gang_code": "", "road_condition": "good", "bunches_per_day": 20.7, "centroid_lon": 100.183958, "centroid_lat": 1.599893}, "geometry": {"type": "Polygon", "coordinates": [[[100.1839, 1.601048], [100.185269, 1.600041], [100.184254, 1.598735], [100.184201, 1.598736], [100.182528, 1.599818], [100.1839, 1.601048]]]}}, {"type": "Feature", "properties": {"division_code": 3, "block_code": 4, "block_label": "3-4", "planted_ha": 3.62, "palms": 494, "planted_year": 2013, "abw_kg": 22.3, "rotation_target_days": 10, "gang_code": "", "road_condition": "fair", "bunches_per_day": 17.4, "centroid_lon": 100.186788, "centroid_lat": 1.599783}, "geometry": {"type": "Polygon", "coordinates": [[[100.185616, 1.600106], [100.186418, 1.600879], [100.18791, 1.599953], [100.187966, 1.599351], [100.186498, 1.598707], [100.185616, 1.600106]]]}}, {"type": "Feature", "properties": {"division_code": 3, "block_code": 5, "block_label": "3-5", "planted_ha": 3.69, "palms": 485, "planted_year": 2015, "abw_kg": 21.6, "rotation_target_days": 10, "gang_code": "", "road_condition": "fair", "bunches_per_day": 17.2, "centroid_lon": 100.192986, "centroid_lat": 1.600461}, "geometry": {"type": "Polygon", "coordinates": [[[100.192159, 1.601081], [100.1926, 1.601557], [100.193325, 1.601191], [100.194423, 1.600684], [100.194419, 1.600608], [100.193039, 1.599584], [100.192499, 1.599209], [100.192442, 1.599214], [100.192055, 1.600357], [100.192159, 1.601081]]]}}, {"type": "Feature", "properties": {"division_code": 3, "block_code": 6, "block_label": "3-6", "planted_ha": 4.13, "palms": 546, "planted_year": 2016, "abw_kg": 20.8, "rotation_target_days": 10, "gang_code": "", "road_condition": "good", "bunches_per_day": 20.2, "centroid_lon": 100.19551, "centroid_lat": 1.60038}, "geometry": {"type": "Polygon", "coordinates": [[[100.194455, 1.600602], [100.19446, 1.600688], [100.195364, 1.601697], [100.196421, 1.600922], [100.196441, 1.599944], [100.195686, 1.59911], [100.19506, 1.599311], [100.194455, 1.600602]]]}}, {"type": "Feature", "properties": {"division_code": 3, "block_code": 7, "block_label": "3-7", "planted_ha": 1.08, "palms": 146, "planted_year": 2017, "abw_kg": 18.9, "rotation_target_days": 10, "gang_code": "", "road_condition": "fair", "bunches_per_day": 4.8, "centroid_lon": 100.200067, "centroid_lat": 1.600322}, "geometry": {"type": "Polygon", "coordinates": [[[100.199506, 1.600365], [100.199919, 1.600795], [100.20043, 1.601342], [100.200266, 1.599265], [100.199506, 1.600365]]]}}, {"type": "Feature", "properties": {"division_code": 3, "block_code": 8, "block_label": "3-8", "planted_ha": 1.63, "palms": 220, "planted_year": 2012, "abw_kg": 22.2, "rotation_target_days": 10, "gang_code": "", "road_condition": "good", "bunches_per_day": 7.5, "centroid_lon": 100.177943, "centroid_lat": 1.598947}, "geometry": {"type": "Polygon", "coordinates": [[[100.177765, 1.600287], [100.178585, 1.59876], [100.177547, 1.597706], [100.177595, 1.598778], [100.177692, 1.600098], [100.177709, 1.600295], [100.177765, 1.600287]]]}}, {"type": "Feature", "properties": {"division_code": 3, "block_code": 9, "block_label": "3-9", "planted_ha": 3.76, "palms": 512, "planted_year": 2013, "abw_kg": 21.8, "rotation_target_days": 10, "gang_code": "", "road_condition": "good", "bunches_per_day": 16.9, "centroid_lon": 100.180311, "centroid_lat": 1.59852}, "geometry": {"type": "Polygon", "coordinates": [[[100.180043, 1.599545], [100.181631, 1.598805], [100.181629, 1.598647], [100.180865, 1.597889], [100.180222, 1.597296], [100.179038, 1.598693], [100.180043, 1.599545]]]}}, {"type": "Feature", "properties": {"division_code": 3, "block_code": 10, "block_label": "3-10", "planted_ha": 3.91, "palms": 527, "planted_year": 2012, "abw_kg": 21.9, "rotation_target_days": 10, "gang_code": "", "road_condition": "fair", "bunches_per_day": 17.4, "centroid_lon": 100.182786, "centroid_lat": 1.598654}, "geometry": {"type": "Polygon", "coordinates": [[[100.181667, 1.598811], [100.182318, 1.59978], [100.182495, 1.599797], [100.184166, 1.598716], [100.182751, 1.597383], [100.181665, 1.598646], [100.181667, 1.598811]]]}}, {"type": "Feature", "properties": {"division_code": 3, "block_code": 11, "block_label": "3-11", "planted_ha": 3.8, "palms": 523, "planted_year": 2013, "abw_kg": 21.8, "rotation_target_days": 10, "gang_code": "", "road_condition": "good", "bunches_per_day": 19.2, "centroid_lon": 100.185435, "centroid_lat": 1.598807}, "geometry": {"type": "Polygon", "coordinates": [[[100.185305, 1.600028], [100.185584, 1.600089], [100.186472, 1.598681], [100.186381, 1.598032], [100.184954, 1.597832], [100.184285, 1.598717], [100.185305, 1.600028]]]}}, {"type": "Feature", "properties": {"division_code": 3, "block_code": 12, "block_label": "3-12", "planted_ha": 4.92, "palms": 660, "planted_year": 2013, "abw_kg": 21.6, "rotation_target_days": 10, "gang_code": "", "road_condition": "fair", "bunches_per_day": 22.7, "centroid_lon": 100.189046, "centroid_lat": 1.599481}, "geometry": {"type": "Polygon", "coordinates": [[[100.187946, 1.599956], [100.188912, 1.600724], [100.189251, 1.600977], [100.189282, 1.60097], [100.189955, 1.599991], [100.190071, 1.598936], [100.189009, 1.598007], [100.188805, 1.598043], [100.188002, 1.599346], [100.187946, 1.599956]]]}}, {"type": "Feature", "properties": {"division_code": 3, "block_code": 13, "block_label": "3-13", "planted_ha": 3.97, "palms": 545, "planted_year": 2014, "abw_kg": 21.6, "rotation_target_days": 10, "gang_code": "", "road_condition": "good", "bunches_per_day": 17.7, "centroid_lon": 100.191214, "centroid_lat": 1.599424}, "geometry": {"type": "Polygon", "coordinates": [[[100.189992, 1.599982], [100.192025, 1.600334], [100.192408, 1.599201], [100.191684, 1.598439], [100.19069, 1.598743], [100.190106, 1.598942], [100.189992, 1.599982]]]}}, {"type": "Feature", "properties": {"division_code": 3, "block_code": 14, "block_label": "3-14", "planted_ha": 3.1, "palms": 418, "planted_year": 2015, "abw_kg": 22.5, "rotation_target_days": 10, "gang_code": "", "road_condition": "fair", "bunches_per_day": 13.8, "centroid_lon": 100.193935, "centroid_lat": 1.599433}, "geometry": {"type": "Polygon", "coordinates": [[[100.192539, 1.599192], [100.193416, 1.59981], [100.194429, 1.600571], [100.195024, 1.599302], [100.193889, 1.598504], [100.192539, 1.599192]]]}}, {"type": "Feature", "properties": {"division_code": 3, "block_code": 15, "block_label": "3-15", "planted_ha": 3.98, "palms": 527, "planted_year": 2016, "abw_kg": 20.1, "rotation_target_days": 10, "gang_code": "", "road_condition": "fair", "bunches_per_day": 21.0, "centroid_lon": 100.196812, "centroid_lat": 1.598834}, "geometry": {"type": "Polygon", "coordinates": [[[100.196464, 1.599916], [100.197866, 1.59944], [100.197939, 1.598886], [100.197038, 1.597748], [100.196288, 1.597744], [100.195712, 1.599086], [100.196464, 1.599916]]]}}, {"type": "Feature", "properties": {"division_code": 3, "block_code": 16, "block_label": "3-16", "planted_ha": 4.08, "palms": 533, "planted_year": 2017, "abw_kg": 18.8, "rotation_target_days": 10, "gang_code": "", "road_condition": "fair", "bunches_per_day": 20.4, "centroid_lon": 100.199027, "centroid_lat": 1.599389}, "geometry": {"type": "Polygon", "coordinates": [[[100.197901, 1.599449], [100.198734, 1.600529], [100.199472, 1.600351], [100.200261, 1.599209], [100.200251, 1.59909], [100.199089, 1.598277], [100.197975, 1.598892], [100.197901, 1.599449]]]}}, {"type": "Feature", "properties": {"division_code": 3, "block_code": 17, "block_label": "3-17", "planted_ha": 5.13, "palms": 694, "planted_year": 2012, "abw_kg": 21.4, "rotation_target_days": 10, "gang_code": "", "road_condition": "fair", "bunches_per_day": 24.3, "centroid_lon": 100.178823, "centroid_lat": 1.597405}, "geometry": {"type": "Polygon", "coordinates": [[[100.177535, 1.597319], [100.177545, 1.597652], [100.178613, 1.598738], [100.179003, 1.598679], [100.180203, 1.597263], [100.180194, 1.597045], [100.178714, 1.596037], [100.177535, 1.597319]]]}}, {"type": "Feature", "properties": {"division_code": 3, "block_code": 18, "block_label": "3-18", "planted_ha": 4.19, "palms": 580, "planted_year": 2012, "abw_kg": 21.5, "rotation_target_days": 10, "gang_code": "", "road_condition": "good", "bunches_per_day": 19.8, "centroid_lon": 100.181512, "centroid_lat": 1.597298}, "geometry": {"type": "Polygon", "coordinates": [[[100.18023, 1.597043], [100.180238, 1.597262], [100.18089, 1.597863], [100.181646, 1.598613], [100.182732, 1.59735], [100.182757, 1.596993], [100.181242, 1.596167], [100.18023, 1.597043]]]}}, {"type": "Feature", "properties": {"division_code": 3, "block_code": 19, "block_label": "3-19", "planted_ha": 3.97, "palms": 545, "planted_year": 2013, "abw_kg": 21.5, "rotation_target_days": 10, "gang_code": "", "road_condition": "fair", "bunches_per_day": 18.2, "centroid_lon": 100.183923, "centroid_lat": 1.597385}, "geometry": {"type": "Polygon", "coordinates": [[[100.182768, 1.59735], [100.184203, 1.5987], [100.184254, 1.598699], [100.184927, 1.597807], [100.18483, 1.596944], [100.183683, 1.596186], [100.182793, 1.596992], [100.182768, 1.59735]]]}}, {"type": "Feature", "properties": {"division_code": 3, "block_code": 20, "block_label": "3-20", "planted_ha": 3.86, "palms": 505, "planted_year": 2013, "abw_kg": 21.7, "rotation_target_days": 10, "gang_code": "", "road_condition": "fair", "bunches_per_day": 20.4, "centroid_lon": 100.185989, "centroid_lat": 1.597066}, "geometry": {"type": "Polygon", "coordinates": [[[100.184962, 1.597796], [100.186389, 1.597997], [100.187258, 1.597007], [100.186136, 1.59587], [100.184866, 1.596941], [100.184962, 1.597796]]]}}, {"type": "Feature", "properties": {"division_code": 3, "block_code": 21, "block_label": "3-21", "planted_ha": 4.02, "palms": 548, "planted_year": 2013, "abw_kg": 22.2, "rotation_target_days": 10, "gang_code": "", "road_condition": "good", "bunches_per_day": 18.5, "centroid_lon": 100.18754, "centroid_lat": 1.598169}, "geometry": {"type": "Polygon", "coordinates": [[[100.186507, 1.598672], [100.187978, 1.599317], [100.18877, 1.59803], [100.187523, 1.597015], [100.187291, 1.597024], [100.186416, 1.598022], [100.186507, 1.598672]]]}}, {"type": "Feature", "properties": {"division_code": 3, "block_code": 22, "block_label": "3-22", "planted_ha": 4.18, "palms": 557, "planted_year": 2013, "abw_kg": 22.6, "rotation_target_days": 10, "gang_code": "", "road_condition": "good", "bunches_per_day": 22.3, "centroid_lon": 100.19041, "centroid_lat": 1.597911}, "geometry": {"type": "Polygon", "coordinates": [[[100.190093, 1.598908], [100.191671, 1.598405], [100.191675, 1.59768], [100.190045, 1.596771], [100.189039, 1.597985], [100.190093, 1.598908]]]}}, {"type": "Feature", "properties": {"division_code": 3, "block_code": 23, "block_label": "3-23", "planted_ha": 4.83, "palms": 648, "planted_year": 2013, "abw_kg": 21.4, "rotation_target_days": 10, "gang_code": "", "road_condition": "good", "bunches_per_day": 25.5, "centroid_lon": 100.192792, "centroid_lat": 1.59791}, "geometry": {"type": "Polygon", "coordinates": [[[100.191707, 1.598412], [100.192436, 1.599178], [100.192498, 1.599172], [100.193874, 1.598471], [100.193968, 1.597766], [100.193118, 1.596643], [100.192407, 1.596773], [100.191711, 1.597675], [100.191707, 1.598412]]]}}, {"type": "Feature", "properties": {"division_code": 3, "block_code": 24, "block_label": "3-24", "planted_ha": 4.14, "palms": 573, "planted_year": 2015, "abw_kg": 22.0, "rotation_target_days": 10, "gang_code": "", "road_condition": "fair", "bunches_per_day": 18.5, "centroid_lon": 100.19512, "centroid_lat": 1.598147}, "geometry": {"type": "Polygon", "coordinates": [[[100.19391, 1.598475], [100.19505, 1.599276], [100.195364, 1.599177], [100.195678, 1.599075], [100.196255, 1.597728], [100.195751, 1.596988], [100.194004, 1.597773], [100.19391, 1.598475]]]}}, {"type": "Feature", "properties": {"division_code": 3, "block_code": 25, "block_label": "3-25", "planted_ha": 3.05, "palms": 423, "planted_year": 2017, "abw_kg": 19.7, "rotation_target_days": 10, "gang_code": "", "road_condition": "good", "bunches_per_day": 15.5, "centroid_lon": 100.198174, "centroid_lat": 1.597835}, "geometry": {"type": "Polygon", "coordinates": [[[100.197962, 1.598858], [100.199072, 1.598245], [100.199105, 1.597389], [100.197992, 1.596876], [100.197071, 1.597732], [100.197962, 1.598858]]]}}, {"type": "Feature", "properties": {"division_code": 3, "block_code": 26, "block_label": "3-26", "planted_ha": 2.05, "palms": 271, "planted_year": 2017, "abw_kg": 18.7, "rotation_target_days": 10, "gang_code": "", "road_condition": "poor", "bunches_per_day": 10.8, "centroid_lon": 100.199725, "centroid_lat": 1.597865}, "geometry": {"type": "Polygon", "coordinates": [[[100.199141, 1.597387], [100.199108, 1.598246], [100.200248, 1.599043], [100.200081, 1.596731], [100.200055, 1.596711], [100.199141, 1.597387]]]}}, {"type": "Feature", "properties": {"division_code": 3, "block_code": 27, "block_label": "3-27", "planted_ha": 2.26, "palms": 301, "planted_year": 2010, "abw_kg": 22.2, "rotation_target_days": 10, "gang_code": "", "road_condition": "good", "bunches_per_day": 10.6, "centroid_lon": 100.17791, "centroid_lat": 1.595851}, "geometry": {"type": "Polygon", "coordinates": [[[100.178693, 1.596007], [100.178685, 1.595904], [100.177736, 1.594609], [100.177423, 1.594656], [100.17749, 1.595738], [100.177533, 1.597266], [100.178693, 1.596007]]]}}, {"type": "Feature", "properties": {"division_code": 3, "block_code": 28, "block_label": "3-28", "planted_ha": 3.94, "palms": 528, "planted_year": 2010, "abw_kg": 22.4, "rotation_target_days": 10, "gang_code": "", "road_condition": "good", "bunches_per_day": 21.0, "centroid_lon": 100.18008, "centroid_lat": 1.595876}, "geometry": {"type": "Polygon", "coordinates": [[[100.178729, 1.596004], [100.18021, 1.597012], [100.181221, 1.596137], [100.181204, 1.595721], [100.180183, 1.594663], [100.178721, 1.595905], [100.178729, 1.596004]]]}}, {"type": "Feature", "properties": {"division_code": 3, "block_code": 29, "block_label": "3-29", "planted_ha": 4.22, "palms": 581, "planted_year": 2012, "abw_kg": 22.6, "rotation_target_days": 10, "gang_code": "", "road_condition": "fair", "bunches_per_day": 20.6, "centroid_lon": 100.182509, "centroid_lat": 1.595826}, "geometry": {"type": "Polygon", "coordinates": [[[100.182774, 1.596961], [100.183663, 1.596155], [100.183686, 1.59566], [100.182508, 1.594587], [100.18124, 1.595722], [100.181257, 1.596134], [100.182774, 1.596961]]]}}, {"type": "Feature", "properties": {"division_code": 3, "block_code": 30, "block_label": "3-30", "planted_ha": 4.29, "palms": 589, "planted_year": 2013, "abw_kg": 22.3, "rotation_target_days": 10, "gang_code": "", "road_condition": "fair", "bunches_per_day": 21.3, "centroid_lon": 100.184919, "centroid_lat": 1.59572}, "geometry": {"type": "Polygon", "coordinates": [[[100.183699, 1.596153], [100.184845, 1.596911], [100.18612, 1.595836], [100.18611, 1.595333], [100.18513, 1.594567], [100.184936, 1.594547], [100.183722, 1.595661], [100.183699, 1.596153]]]}}, {"type": "Feature", "properties": {"division_code": 3, "block_code": 31, "block_label": "3-31", "planted_ha": 4.58, "palms": 613, "planted_year": 2012, "abw_kg": 22.1, "rotation_target_days": 10, "gang_code": "", "road_condition": "fair", "bunches_per_day": 21.1, "centroid_lon": 100.187332, "centroid_lat": 1.59563}, "geometry": {"type": "Polygon", "coordinates": [[[100.186156, 1.595837], [100.18729, 1.596988], [100.187518, 1.596979], [100.188577, 1.595366], [100.18766, 1.594389], [100.187501, 1.594363], [100.186145, 1.595333], [100.186156, 1.595837]]]}}, {"type": "Feature", "properties": {"division_code": 3, "block_code": 32, "block_label": "3-32", "planted_ha": 4.95, "palms": 686, "planted_year": 2013, "abw_kg": 22.5, "rotation_target_days": 10, "gang_code": "", "road_condition": "good", "bunches_per_day": 23.4, "centroid_lon": 100.188881, "centroid_lat": 1.596637}, "geometry": {"type": "Polygon", "coordinates": [[[100.187552, 1.596993], [100.188799, 1.598008], [100.189004, 1.597971], [100.190023, 1.596741], [100.19004, 1.596376], [100.189447, 1.595436], [100.188609, 1.595383], [100.187552, 1.596993]]]}}, {"type": "Feature", "properties": {"division_code": 3, "block_code": 33, "block_label": "3-33", "planted_ha": 3.2, "palms": 438, "planted_year": 2012, "abw_kg": 21.9, "rotation_target_days": 10, "gang_code": "", "road_condition": "fair", "bunches_per_day": 16.2, "centroid_lon": 100.191286, "centroid_lat": 1.59663}, "geometry": {"type": "Polygon", "coordinates": [[[100.190059, 1.596738], [100.191689, 1.597646], [100.192375, 1.596756], [100.191652, 1.595635], [100.190076, 1.596383], [100.190059, 1.596738]]]}}, {"type": "Feature", "properties": {"division_code": 3, "block_code": 34, "block_label": "3-34", "planted_ha": 4.15, "palms": 549, "planted_year": 2014, "abw_kg": 22.4, "rotation_target_days": 10, "gang_code": "", "road_condition": "good", "bunches_per_day": 18.8, "centroid_lon": 100.19445, "centroid_lat": 1.59665}, "geometry": {"type": "Polygon", "coordinates": [[[100.193993, 1.597738], [100.195738, 1.596954], [100.195638, 1.596069], [100.193802, 1.595723], [100.193148, 1.596623], [100.193993, 1.597738]]]}}, {"type": "Feature", "properties": {"division_code": 3, "block_code": 35, "block_label": "3-35", "planted_ha": 4.85, "palms": 661, "planted_year": 2015, "abw_kg": 21.6, "rotation_target_days": 10, "gang_code": "", "road_condition": "good", "bunches_per_day": 25.8, "centroid_lon": 100.196756, "centroid_lat": 1.596554}, "geometry": {"type": "Polygon", "coordinates": [[[100.195774, 1.596959], [100.196285, 1.597708], [100.197039, 1.597712], [100.197971, 1.596846], [100.197972, 1.596152], [100.196249, 1.595238], [100.195673, 1.596058], [100.195774, 1.596959]]]}}, {"type": "Feature", "properties": {"division_code": 3, "block_code": 36, "block_label": "3-36", "planted_ha": 3.12, "palms": 416, "planted_year": 2015, "abw_kg": 21.9, "rotation_target_days": 10, "gang_code": "", "road_condition": "fair", "bunches_per_day": 15.0, "centroid_lon": 100.198981, "centroid_lat": 1.596436}, "geometry": {"type": "Polygon", "coordinates": [[[100.198006, 1.596843], [100.199121, 1.597357], [100.200037, 1.596679], [100.200038, 1.596157], [100.198735, 1.595475], [100.198008, 1.596149], [100.198006, 1.596843]]]}}, {"type": "Feature", "properties": {"division_code": 3, "block_code": 37, "block_label": "3-37", "planted_ha": 2.72, "palms": 373, "planted_year": 2010, "abw_kg": 21.8, "rotation_target_days": 10, "gang_code": "", "road_condition": "fair", "bunches_per_day": 12.4, "centroid_lon": 100.178911, "centroid_lat": 1.594851}, "geometry": {"type": "Polygon", "coordinates": [[[100.178706, 1.595871], [100.180166, 1.594631], [100.179866, 1.59427], [100.177924, 1.594314], [100.177766, 1.594589], [100.178706, 1.595871]]]}}, {"type": "Feature", "properties": {"division_code": 3, "block_code": 38, "block_label": "3-38", "planted_ha": 2.45, "palms": 337, "planted_year": 2011, "abw_kg": 22.5, "rotation_target_days": 10, "gang_code": "", "road_condition": "fair", "bunches_per_day": 11.3, "centroid_lon": 100.18135, "centroid_lat": 1.594753}, "geometry": {"type": "Polygon", "coordinates": [[[100.1802, 1.594609], [100.181223, 1.595689], [100.182488, 1.594556], [100.182453, 1.594317], [100.182296, 1.59419], [100.180602, 1.594254], [100.1802, 1.594609]]]}}, {"type": "Feature", "properties": {"division_code": 3, "block_code": 39, "block_label": "3-39", "planted_ha": 2.74, "palms": 359, "planted_year": 2012, "abw_kg": 22.2, "rotation_target_days": 10, "gang_code": "", "road_condition": "fair", "bunches_per_day": 12.3, "centroid_lon": 100.183699, "centroid_lat": 1.594665}, "geometry": {"type": "Polygon", "coordinates": [[[100.182524, 1.594554], [100.183705, 1.595628], [100.184906, 1.594525], [100.184601, 1.59407], [100.182633, 1.594173], [100.182489, 1.594314], [100.182524, 1.594554]]]}}, {"type": "Feature", "properties": {"division_code": 3, "block_code": 40, "block_label": "3-40", "planted_ha": 2.34, "palms": 314, "planted_year": 2012, "abw_kg": 22.2, "rotation_target_days": 10, "gang_code": "", "road_condition": "fair", "bunches_per_day": 12.2, "centroid_lon": 100.186284, "centroid_lat": 1.594483}, "geometry": {"type": "Polygon", "coordinates": [[[100.186128, 1.595301], [100.187473, 1.594339], [100.187224, 1.593933], [100.185512, 1.594024], [100.185161, 1.594546], [100.186128, 1.595301]]]}}, {"type": "Feature", "properties": {"division_code": 3, "block_code": 41, "block_label": "3-41", "planted_ha": 3.59, "palms": 472, "planted_year": 2012, "abw_kg": 22.5, "rotation_target_days": 10, "gang_code": "", "road_condition": "good", "bunches_per_day": 16.2, "centroid_lon": 100.189029, "centroid_lat": 1.594484}, "geometry": {"type": "Polygon", "coordinates": [[[100.188608, 1.595346], [100.189448, 1.5954], [100.190195, 1.59429], [100.190083, 1.593701], [100.188199, 1.593866], [100.187694, 1.594372], [100.188608, 1.595346]]]}}, {"type": "Feature", "properties": {"division_code": 3, "block_code": 42, "block_label": "3-42", "planted_ha": 3.41, "palms": 454, "planted_year": 2013, "abw_kg": 21.4, "rotation_target_days": 10, "gang_code": "", "road_condition": "fair", "bunches_per_day": 15.3, "centroid_lon": 100.19058, "centroid_lat": 1.595308}, "geometry": {"type": "Polygon", "coordinates": [[[100.190065, 1.596348], [100.191642, 1.5956], [100.191723, 1.594885], [100.190221, 1.594315], [100.189479, 1.595418], [100.190065, 1.596348]]]}}, {"type": "Feature", "properties": {"division_code": 3, "block_code": 43, "block_label": "3-43", "planted_ha": 4.67, "palms": 638, "planted_year": 2012, "abw_kg": 21.4, "rotation_target_days": 10, "gang_code": "", "road_condition": "fair", "bunches_per_day": 23.5, "centroid_lon": 100.192717, "centroid_lat": 1.595418}, "geometry": {"type": "Polygon", "coordinates": [[[100.191759, 1.594883], [100.191677, 1.595607], [100.192405, 1.596736], [100.193116, 1.596607], [100.193775, 1.595699], [100.193519, 1.594771], [100.19291, 1.594001], [100.192729, 1.594042], [100.191759, 1.594883]]]}}, {"type": "Feature", "properties": {"division_code": 3, "block_code": 44, "block_label": "3-44", "planted_ha": 4.28, "palms": 567, "planted_year": 2013, "abw_kg": 22.2, "rotation_target_days": 10, "gang_code": "", "road_condition": "fair", "bunches_per_day": 21.3, "centroid_lon": 100.194982, "centroid_lat": 1.595106}, "geometry": {"type": "Polygon", "coordinates": [[[100.195646, 1.596034], [100.196225, 1.595209], [100.196238, 1.594916], [100.195676, 1.594106], [100.19451, 1.594455], [100.193557, 1.594774], [100.193809, 1.595687], [100.195646, 1.596034]]]}}, {"type": "Feature", "properties": {"division_code": 3, "block_code": 45, "block_label": "3-45", "planted_ha": 3.52, "palms": 477, "planted_year": 2014, "abw_kg": 21.5, "rotation_target_days": 10, "gang_code": "", "road_condition": "good", "bunches_per_day": 15.9, "centroid_lon": 100.197638, "centroid_lat": 1.595126}, "geometry": {"type": "Polygon", "coordinates": [[[100.196261, 1.595204], [100.197987, 1.596119], [100.198714, 1.595446], [100.1987, 1.594706], [100.197707, 1.594219], [100.196274, 1.594922], [100.196261, 1.595204]]]}}, {"type": "Feature", "properties": {"division_code": 3, "block_code": 46, "block_label": "3-46", "planted_ha": 2.49, "palms": 335, "planted_year": 2014, "abw_kg": 21.8, "rotation_target_days": 10, "gang_code": "", "road_condition": "good", "bunches_per_day": 11.8, "centroid_lon": 100.199481, "centroid_lat": 1.594964}, "geometry": {"type": "Polygon", "coordinates": [[[100.19875, 1.595443], [100.200052, 1.596123], [100.199932, 1.593641], [100.198736, 1.594703], [100.19875, 1.595443]]]}}, {"type": "Feature", "properties": {"division_code": 3, "block_code": 47, "block_label": "3-47", "planted_ha": 2.64, "palms": 362, "planted_year": 2013, "abw_kg": 21.8, "rotation_target_days": 10, "gang_code": "", "road_condition": "good", "bunches_per_day": 13.3, "centroid_lon": 100.191383, "centroid_lat": 1.594103}, "geometry": {"type": "Polygon", "coordinates": [[[100.191739, 1.594853], [100.192692, 1.594026], [100.192022, 1.593538], [100.190119, 1.593697], [100.19023, 1.59428], [100.191739, 1.594853]]]}}, {"type": "Feature", "properties": {"division_code": 3, "block_code": 48, "block_label": "3-48", "planted_ha": 2.89, "palms": 391, "planted_year": 2013, "abw_kg": 21.8, "rotation_target_days": 10, "gang_code": "", "road_condition": "fair", "bunches_per_day": 14.2, "centroid_lon": 100.194213, "centroid_lat": 1.593975}, "geometry": {"type": "Polygon", "coordinates": [[[100.193541, 1.594741], [100.194499, 1.59442], [100.195662, 1.594073], [100.195561, 1.593659], [100.195277, 1.59348], [100.193175, 1.593486], [100.192939, 1.593978], [100.193541, 1.594741]]]}}, {"type": "Feature", "properties": {"division_code": 3, "block_code": 49, "block_label": "3-49", "planted_ha": 2.62, "palms": 346, "planted_year": 2013, "abw_kg": 21.5, "rotation_target_days": 10, "gang_code": "", "road_condition": "good", "bunches_per_day": 12.3, "centroid_lon": 100.196652, "centroid_lat": 1.594012}, "geometry": {"type": "Polygon", "coordinates": [[[100.1957, 1.594077], [100.196262, 1.594888], [100.197689, 1.594188], [100.197681, 1.593431], [100.196816, 1.593468], [100.195733, 1.593482], [100.195597, 1.593652], [100.1957, 1.594077]]]}}, {"type": "Feature", "properties": {"division_code": 3, "block_code": 50, "block_label": "3-50", "planted_ha": 2.51, "palms": 345, "planted_year": 2014, "abw_kg": 22.3, "rotation_target_days": 10, "gang_code": "", "road_condition": "fair", "bunches_per_day": 11.5, "centroid_lon": 100.198719, "centroid_lat": 1.593848}, "geometry": {"type": "Polygon", "coordinates": [[[100.197725, 1.594188], [100.198715, 1.594673], [100.199929, 1.593595], [100.199917, 1.593453], [100.199734, 1.593251], [100.197717, 1.593429], [100.197725, 1.594188]]]}}]}